[{"OBJECT_NAME":"SDA_1675","OBJECT_ID":"2025-230M","EPOCH":"2026-03-09T17:36:17.756640","MEAN_MOTION":13.84748964,"ECCENTRICITY":0.00037161,"INCLINATION":81.2979,"RA_OF_ASC_NODE":303.94,"ARG_OF_PERICENTER":72.4349,"MEAN_ANOMALY":287.7214,"EPHEMERIS_TYPE":0,"CLASSIFICATION_TYPE":"U","NORAD_CAT_ID":65985,"ELEMENT_SET_NO":999,"REV_AT_EPOCH":2004,"BSTAR":0.00019794423,"MEAN_MOTION_DOT":2.35e-6,"MEAN_MOTION_DDOT":0},{"OBJECT_NAME":"CZ-4C R\/B","OBJECT_ID":"2022-027B","EPOCH":"2026-03-09T22:18:38.485440","MEAN_MOTION":13.65472538,"ECCENTRICITY":0.02237099,"INCLINATION":63.3959,"RA_OF_ASC_NODE":323.1568,"ARG_OF_PERICENTER":22.9641,"MEAN_ANOMALY":338.121,"EPHEMERIS_TYPE":0,"CLASSIFICATION_TYPE":"U","NORAD_CAT_ID":52085,"ELEMENT_SET_NO":999,"REV_AT_EPOCH":19848,"BSTAR":6.7529482e-5,"MEAN_MOTION_DOT":-3.0e-7,"MEAN_MOTION_DDOT":0}]
